,category,name,address,latitude,longtitude
0,hospital,b'\xe9\x83\xb5\xe6\x94\xbf\xe9\x86\xab\xe9\x99\xa2',b'\xe8\x87\xba\xe5\x8c\x97\xe5\xb8\x82\xe4\xb8\xad\xe6\xad\xa3\xe5\x8d\x80\xe7\xa6\x8f\xe5\xb7\x9e\xe8\xa1\x9714\xe8\x99\x9f',25.0285943,121.5188268
1,hospital,b'\xe5\x9c\x8b\xe7\xab\x8b\xe5\x8f\xb0\xe7\x81\xa3\xe5\xa4\xa7\xe5\xad\xb8\xe9\x86\xab\xe5\xad\xb8\xe9\x99\xa2\xe9\x99\x84\xe8\xa8\xad\xe9\x86\xab\xe9\x99\xa2',b'\xe8\x87\xba\xe5\x8c\x97\xe5\xb8\x82\xe4\xb8\xad\xe6\xad\xa3\xe5\x8d\x80\xe4\xb8\xad\xe5\xb1\xb1\xe5\x8d\x97\xe8\xb7\xaf7\xe8\x99\x9f',25.0409785,121.5191987
2,hospital,b'\xe5\x9c\x8b\xe7\xab\x8b\xe5\x8f\xb0\xe7\x81\xa3\xe5\xa4\xa7\xe5\xad\xb8\xe9\x86\xab\xe5\xad\xb8\xe9\x99\xa2\xe9\x99\x84\xe8\xa8\xad\xe9\x86\xab\xe9\x99\xa2_1',b'\xe8\x87\xba\xe5\x8c\x97\xe5\xb8\x82\xe4\xb8\xad\xe6\xad\xa3\xe5\x8d\x80\xe5\xb8\xb8\xe5\xbe\xb7\xe8\xa1\x971\xe8\x99\x9f',25.0408849,121.5178933
3,hospital,b'\xe5\x9c\x8b\xe7\xab\x8b\xe8\x87\xba\xe7\x81\xa3\xe5\xa4\xa7\xe5\xad\xb8\xe9\x86\xab\xe5\xad\xb8\xe9\x99\xa2\xe9\x99\x84\xe8\xa8\xad\xe9\x86\xab\xe9\x99\xa2\xe5\x85\x92\xe7\xab\xa5\xe9\x86\xab\xe9\x99\xa2',b'\xe8\x87\xba\xe5\x8c\x97\xe5\xb8\x82\xe4\xb8\xad\xe6\xad\xa3\xe5\x8d\x80\xe4\xb8\xad\xe5\xb1\xb1\xe5\x8d\x97\xe8\xb7\xaf8\xe8\x99\x9f',25.0443271,121.518583
4,hospital,b'\xe8\x87\xba\xe5\x8c\x97\xe5\xb8\x82\xe7\xab\x8b\xe8\x81\xaf\xe5\x90\x88\xe9\x86\xab\xe9\x99\xa2',b'\xe8\x87\xba\xe5\x8c\x97\xe5\xb8\x82\xe5\xa4\xa7\xe5\x90\x8c\xe5\x8d\x80\xe9\x84\xad\xe5\xb7\x9e\xe8\xb7\xaf145\xe8\x99\x9f',25.0509696,121.5093209
5,hospital,b'\xe6\xb3\xb0\xe5\xae\x89\xe9\x86\xab\xe9\x99\xa2',b'\xe8\x87\xba\xe5\x8c\x97\xe5\xb8\x82\xe4\xb8\xad\xe5\xb1\xb1\xe5\x8d\x80\xe6\xb0\x91\xe6\xac\x8a\xe6\x9d\xb1\xe8\xb7\xaf\xe4\xba\x8c\xe6\xae\xb592\xe5\xb7\xb72\xe4\xb9\x8b1\xe8\x99\x9f',25.0614683,121.5315551
6,hospital,b'\xe5\x8d\x94\xe5\x92\x8c\xe5\xa9\xa6\xe5\xa5\xb3\xe9\x86\xab\xe9\x99\xa2',b'\xe8\x87\xba\xe5\x8c\x97\xe5\xb8\x82\xe4\xb8\xad\xe5\xb1\xb1\xe5\x8d\x80\xe6\x9d\xbe\xe6\xb1\x9f\xe8\xb7\xaf85\xe5\xb7\xb75\xe8\x99\x9f',25.0503253,121.5339024
7,hospital,b'\xe5\x8f\xb0\xe7\x81\xa3\xe5\x9f\xba\xe7\x9d\xa3\xe9\x95\xb7\xe8\x80\x81\xe6\x95\x99\xe6\x9c\x83\xe9\xa6\xac\xe5\x81\x95\xe9\x86\xab\xe7\x99\x82\xe8\xb2\xa1\xe5\x9c\x98\xe6\xb3\x95\xe4\xba\xba\xe9\xa6\xac\xe5\x81\x95\xe7\xb4\x80\xe5\xbf\xb5\xe9\x86\xab\xe9\x99\xa2',b'\xe8\x87\xba\xe5\x8c\x97\xe5\xb8\x82\xe4\xb8\xad\xe5\xb1\xb1\xe5\x8d\x80\xe4\xb8\xad\xe5\xb1\xb1\xe5\x8c\x97\xe8\xb7\xaf\xe4\xba\x8c\xe6\xae\xb592\xe8\x99\x9f',25.0588322,121.5223675
8,hospital,b'\xe9\x95\xb7\xe5\xba\x9a\xe9\x86\xab\xe7\x99\x82\xe8\xb2\xa1\xe5\x9c\x98\xe6\xb3\x95\xe4\xba\xba\xe5\x8f\xb0\xe5\x8c\x97\xe9\x95\xb7\xe5\xba\x9a\xe7\xb4\x80\xe5\xbf\xb5\xe9\x86\xab\xe9\x99\xa2',b'\xe8\x87\xba\xe5\x8c\x97\xe5\xb8\x82\xe6\x9d\xbe\xe5\xb1\xb1\xe5\x8d\x80\xe6\x95\xa6\xe5\x8c\x96\xe5\x8c\x97\xe8\xb7\xaf199\xe8\x99\x9f',25.0556264,121.5496349
9,hospital,b'\xe9\x95\xb7\xe5\xba\x9a\xe9\x86\xab\xe7\x99\x82\xe8\xb2\xa1\xe5\x9c\x98\xe6\xb3\x95\xe4\xba\xba\xe5\x8f\xb0\xe5\x8c\x97\xe9\x95\xb7\xe5\xba\x9a\xe7\xb4\x80\xe5\xbf\xb5\xe9\x86\xab\xe9\x99\xa2_1',b'\xe8\x87\xba\xe5\x8c\x97\xe5\xb8\x82\xe6\x9d\xbe\xe5\xb1\xb1\xe5\x8d\x80\xe6\x95\xa6\xe5\x8c\x96\xe5\x8c\x97\xe8\xb7\xaf199\xe5\xb7\xb76\xe8\x99\x9f',25.0562081,121.5507817
10,hospital,b'\xe5\x9f\xba\xe7\x9d\xa3\xe5\xbe\xa9\xe8\x87\xa8\xe5\xae\x89\xe6\x81\xaf\xe6\x97\xa5\xe6\x9c\x83\xe9\x86\xab\xe7\x99\x82\xe8\xb2\xa1\xe5\x9c\x98\xe6\xb3\x95\xe4\xba\xba\xe8\x87\xba\xe5\xae\x89\xe9\x86\xab\xe9\x99\xa2',b'\xe8\x87\xba\xe5\x8c\x97\xe5\xb8\x82\xe6\x9d\xbe\xe5\xb1\xb1\xe5\x8d\x80\xe5\x85\xab\xe5\xbe\xb7\xe8\xb7\xaf\xe4\xba\x8c\xe6\xae\xb5424\xe8\x99\x9f',25.0476829,121.5474831
11,hospital,b'\xe5\x8d\x9a\xe4\xbb\x81\xe7\xb6\x9c\xe5\x90\x88\xe9\x86\xab\xe9\x99\xa2',b'\xe8\x87\xba\xe5\x8c\x97\xe5\xb8\x82\xe6\x9d\xbe\xe5\xb1\xb1\xe5\x8d\x80\xe5\x85\x89\xe5\xbe\xa9\xe5\x8c\x97\xe8\xb7\xaf66\xe8\x99\x9f',25.0499703,121.5575603
12,hospital,b'\xe5\x9f\xb9\xe9\x9d\x88\xe9\x86\xab\xe9\x99\xa2',b'\xe8\x87\xba\xe5\x8c\x97\xe5\xb8\x82\xe6\x9d\xbe\xe5\xb1\xb1\xe5\x8d\x80\xe5\x85\xab\xe5\xbe\xb7\xe8\xb7\xaf\xe5\x9b\x9b\xe6\xae\xb5355\xe8\x99\x9f',25.0494027,121.5681918
13,hospital,b'\xe4\xb8\x89\xe8\xbb\x8d\xe7\xb8\xbd\xe9\x86\xab\xe9\x99\xa2\xe6\x9d\xbe\xe5\xb1\xb1\xe5\x88\x86\xe9\x99\xa2\xe9\x99\x84\xe8\xa8\xad\xe6\xb0\x91\xe7\x9c\xbe\xe8\xa8\xba\xe7\x99\x82\xe6\x9c\x8d\xe5\x8b\x99\xe8\x99\x95',b'\xe8\x87\xba\xe5\x8c\x97\xe5\xb8\x82\xe6\x9d\xbe\xe5\xb1\xb1\xe5\x8d\x80\xe5\x81\xa5\xe5\xba\xb7\xe8\xb7\xaf131\xe8\x99\x9f',25.0543001,121.5576271
14,hospital,b'\xe4\xb8\xad\xe5\xb1\xb1\xe9\x86\xab\xe7\x99\x82\xe7\xa4\xbe\xe5\x9c\x98\xe6\xb3\x95\xe4\xba\xba\xe4\xb8\xad\xe5\xb1\xb1\xe9\x86\xab\xe9\x99\xa2',b'\xe8\x87\xba\xe5\x8c\x97\xe5\xb8\x82\xe5\xa4\xa7\xe5\xae\x89\xe5\x8d\x80\xe4\xbb\x81\xe6\x84\x9b\xe8\xb7\xaf\xe5\x9b\x9b\xe6\xae\xb5112\xe5\xb7\xb711\xe8\x99\x9f',25.0365128,121.5499646
15,hospital,b'\xe5\x9c\x8b\xe7\xab\x8b\xe8\x87\xba\xe7\x81\xa3\xe5\xa4\xa7\xe5\xad\xb8\xe9\x86\xab\xe5\xad\xb8\xe9\x99\xa2\xe9\x99\x84\xe8\xa8\xad\xe7\x99\x8c\xe9\x86\xab\xe4\xb8\xad\xe5\xbf\x83\xe9\x86\xab\xe9\x99\xa2',b'\xe8\x87\xba\xe5\x8c\x97\xe5\xb8\x82\xe5\xa4\xa7\xe5\xae\x89\xe5\x8d\x80\xe5\x9f\xba\xe9\x9a\x86\xe8\xb7\xaf3\xe6\xae\xb5155\xe5\xb7\xb757\xe8\x99\x9f',25.01459,121.5446717
16,hospital,b'\xe7\xa7\x80\xe5\x82\xb3\xe9\x86\xab\xe9\x99\xa2',b'\xe8\x87\xba\xe5\x8c\x97\xe5\xb8\x82\xe5\xa4\xa7\xe5\xae\x89\xe5\x8d\x80\xe5\x85\x89\xe5\xbe\xa9\xe5\x8d\x97\xe8\xb7\xaf116\xe5\xb7\xb71\xe8\x99\x9f',25.0431043,121.5568078
17,hospital,b'\xe5\xae\x8f\xe6\x81\xa9\xe9\x86\xab\xe7\x99\x82\xe8\xb2\xa1\xe5\x9c\x98\xe6\xb3\x95\xe4\xba\xba\xe5\xae\x8f\xe6\x81\xa9\xe7\xb6\x9c\xe5\x90\x88\xe9\x86\xab\xe9\x99\xa2',b'\xe8\x87\xba\xe5\x8c\x97\xe5\xb8\x82\xe5\xa4\xa7\xe5\xae\x89\xe5\x8d\x80\xe4\xbb\x81\xe6\x84\x9b\xe8\xb7\xaf\xe5\x9b\x9b\xe6\xae\xb571\xe5\xb7\xb71\xe8\x99\x9f',25.0381916,121.5466881
18,hospital,b'\xe4\xb8\xad\xe5\xbf\x83\xe8\xa8\xba\xe6\x89\x80\xe9\x86\xab\xe7\x99\x82\xe8\xb2\xa1\xe5\x9c\x98\xe6\xb3\x95\xe4\xba\xba\xe4\xb8\xad\xe5\xbf\x83\xe7\xb6\x9c\xe5\x90\x88\xe9\x86\xab\xe9\x99\xa2',b'\xe8\x87\xba\xe5\x8c\x97\xe5\xb8\x82\xe5\xa4\xa7\xe5\xae\x89\xe5\x8d\x80\xe5\xbf\xa0\xe5\xad\x9d\xe6\x9d\xb1\xe8\xb7\xaf\xe5\x9b\x9b\xe6\xae\xb577\xe8\x99\x9f',25.0418516,121.5474838
19,hospital,b'\xe5\x9c\x8b\xe6\xb3\xb0\xe9\x86\xab\xe7\x99\x82\xe8\xb2\xa1\xe5\x9c\x98\xe6\xb3\x95\xe4\xba\xba\xe5\x9c\x8b\xe6\xb3\xb0\xe7\xb6\x9c\xe5\x90\x88\xe9\x86\xab\xe9\x99\xa2',b'\xe8\x87\xba\xe5\x8c\x97\xe5\xb8\x82\xe5\xa4\xa7\xe5\xae\x89\xe5\x8d\x80\xe4\xbb\x81\xe6\x84\x9b\xe8\xb7\xaf\xe5\x9b\x9b\xe6\xae\xb5280\xe8\x99\x9f',25.0368778,121.5538588
20,hospital,b'\xe5\x9c\x8b\xe6\xb3\xb0\xe9\x86\xab\xe7\x99\x82\xe8\xb2\xa1\xe5\x9c\x98\xe6\xb3\x95\xe4\xba\xba\xe5\x9c\x8b\xe6\xb3\xb0\xe7\xb6\x9c\xe5\x90\x88\xe9\x86\xab\xe9\x99\xa2_1',b'\xe8\x87\xba\xe5\x8c\x97\xe5\xb8\x82\xe5\xa4\xa7\xe5\xae\x89\xe5\x8d\x80\xe4\xbb\x81\xe6\x84\x9b\xe8\xb7\xaf\xe5\x9b\x9b\xe6\xae\xb5266\xe5\xb7\xb76\xe8\x99\x9f',25.0371818,121.5527439
21,hospital,b'\xe5\x90\x8c\xe4\xbb\x81\xe9\x99\xa2\xe9\x86\xab\xe7\x99\x82\xe8\xb2\xa1\xe5\x9c\x98\xe6\xb3\x95\xe4\xba\xba\xe8\x90\xac\xe8\x8f\xaf\xe9\x86\xab\xe9\x99\xa2',b'\xe8\x87\xba\xe5\x8c\x97\xe5\xb8\x82\xe8\x90\xac\xe8\x8f\xaf\xe5\x8d\x80\xe4\xb8\xad\xe8\x8f\xaf\xe8\xb7\xaf\xe4\xba\x8c\xe6\xae\xb5606\xe5\xb7\xb76\xe8\x99\x9f',25.0239991,121.50981
22,hospital,b'\xe8\xb2\xa1\xe5\x9c\x98\xe6\xb3\x95\xe4\xba\xba\xe5\x8f\xb0\xe7\x81\xa3\xe7\x9c\x81\xe7\xa7\x81\xe7\xab\x8b\xe5\x8f\xb0\xe5\x8c\x97\xe4\xbb\x81\xe6\xbf\x9f\xe9\x99\xa2\xe9\x99\x84\xe8\xa8\xad\xe4\xbb\x81\xe6\xbf\x9f\xe9\x86\xab\xe9\x99\xa2',b'\xe8\x87\xba\xe5\x8c\x97\xe5\xb8\x82\xe8\x90\xac\xe8\x8f\xaf\xe5\x8d\x80\xe5\xbb\xa3\xe5\xb7\x9e\xe8\xa1\x97200\xe8\x99\x9f',25.0366809,121.4980941
23,hospital,b'\xe8\xa5\xbf\xe5\x9c\x92\xe9\x86\xab\xe7\x99\x82\xe7\xa4\xbe\xe5\x9c\x98\xe6\xb3\x95\xe4\xba\xba\xe8\xa5\xbf\xe5\x9c\x92\xe9\x86\xab\xe9\x99\xa2',b'\xe8\x87\xba\xe5\x8c\x97\xe5\xb8\x82\xe8\x90\xac\xe8\x8f\xaf\xe5\x8d\x80\xe8\xa5\xbf\xe5\x9c\x92\xe8\xb7\xaf\xe4\xba\x8c\xe6\xae\xb5270\xe8\x99\x9f',25.0277351,121.4944414
24,hospital,b'\xe5\x9c\x8b\xe7\xab\x8b\xe8\x87\xba\xe7\x81\xa3\xe5\xa4\xa7\xe5\xad\xb8\xe9\x86\xab\xe5\xad\xb8\xe9\x99\xa2\xe9\x99\x84\xe8\xa8\xad\xe9\x86\xab\xe9\x99\xa2\xe5\x8c\x97\xe8\xad\xb7\xe5\x88\x86\xe9\x99\xa2',b'\xe8\x87\xba\xe5\x8c\x97\xe5\xb8\x82\xe8\x90\xac\xe8\x8f\xaf\xe5\x8d\x80\xe5\xba\xb7\xe5\xae\x9a\xe8\xb7\xaf37\xe8\x99\x9f',25.0421536,121.5026196
25,hospital,b'\xe5\x9c\x8b\xe7\xab\x8b\xe8\x87\xba\xe7\x81\xa3\xe5\xa4\xa7\xe5\xad\xb8\xe9\x86\xab\xe5\xad\xb8\xe9\x99\xa2\xe9\x99\x84\xe8\xa8\xad\xe9\x86\xab\xe9\x99\xa2\xe5\x8c\x97\xe8\xad\xb7\xe5\x88\x86\xe9\x99\xa2',b'\xe8\x87\xba\xe5\x8c\x97\xe5\xb8\x82\xe8\x90\xac\xe8\x8f\xaf\xe5\x8d\x80\xe5\x85\xa7\xe6\xb1\x9f\xe8\xa1\x9787\xe8\x99\x9f',25.0417582,121.5035772
26,hospital,b'\xe8\x87\xba\xe5\x8c\x97\xe9\x86\xab\xe5\xad\xb8\xe5\xa4\xa7\xe5\xad\xb8\xe9\x99\x84\xe8\xa8\xad\xe9\x86\xab\xe9\x99\xa2',b'\xe8\x87\xba\xe5\x8c\x97\xe5\xb8\x82\xe4\xbf\xa1\xe7\xbe\xa9\xe5\x8d\x80\xe5\x90\xb3\xe8\x88\x88\xe8\xa1\x97252\xe8\x99\x9f',25.0269556,121.563012
27,hospital,b'\xe6\x96\xb0\xe5\x85\x89\xe9\x86\xab\xe7\x99\x82\xe8\xb2\xa1\xe5\x9c\x98\xe6\xb3\x95\xe4\xba\xba\xe6\x96\xb0\xe5\x85\x89\xe5\x90\xb3\xe7\x81\xab\xe7\x8d\x85\xe7\xb4\x80\xe5\xbf\xb5\xe9\x86\xab\xe9\x99\xa2',b'\xe8\x87\xba\xe5\x8c\x97\xe5\xb8\x82\xe5\xa3\xab\xe6\x9e\x97\xe5\x8d\x80\xe6\x96\x87\xe6\x98\x8c\xe8\xb7\xaf95\xe8\x99\x9f',25.0962811,121.5209845
28,hospital,b'\xe4\xb8\x89\xe8\xbb\x8d\xe7\xb8\xbd\xe9\x86\xab\xe9\x99\xa2\xe5\x8c\x97\xe6\x8a\x95\xe5\x88\x86\xe9\x99\xa2\xe9\x99\x84\xe8\xa8\xad\xe6\xb0\x91\xe7\x9c\xbe\xe8\xa8\xba\xe7\x99\x82\xe6\x9c\x8d\xe5\x8b\x99\xe8\x99\x95',b'\xe8\x87\xba\xe5\x8c\x97\xe5\xb8\x82\xe5\x8c\x97\xe6\x8a\x95\xe5\x8d\x80\xe6\x96\xb0\xe6\xb0\x91\xe8\xb7\xaf60\xe8\x99\x9f',25.1395917,121.5097658
29,hospital,b'\xe8\x87\xba\xe5\x8c\x97\xe5\xb8\x82\xe5\x8c\x97\xe6\x8a\x95\xe5\x81\xa5\xe5\xba\xb7\xe7\xae\xa1\xe7\x90\x86\xe9\x86\xab\xe9\x99\xa2',b'\xe8\x87\xba\xe5\x8c\x97\xe5\xb8\x82\xe5\x8c\x97\xe6\x8a\x95\xe5\x8d\x80\xe4\xb8\xad\xe5\x92\x8c\xe8\xa1\x972\xe8\x99\x9f',25.137558,121.503699
30,hospital,b'\xe9\x86\xab\xe7\x99\x82\xe8\xb2\xa1\xe5\x9c\x98\xe6\xb3\x95\xe4\xba\xba\xe8\xbe\x9c\xe5\x85\xac\xe4\xba\xae\xe5\x9f\xba\xe9\x87\x91\xe6\x9c\x83\xe5\x92\x8c\xe4\xbf\xa1\xe6\xb2\xbb\xe7\x99\x8c\xe4\xb8\xad\xe5\xbf\x83\xe9\x86\xab\xe9\x99\xa2',b'\xe8\x87\xba\xe5\x8c\x97\xe5\xb8\x82\xe5\x8c\x97\xe6\x8a\x95\xe5\x8d\x80\xe7\xab\x8b\xe5\xbe\xb7\xe8\xb7\xaf125\xe8\x99\x9f',25.1283783,121.4720764
31,hospital,b'\xe6\x8c\xaf\xe8\x88\x88\xe9\x86\xab\xe7\x99\x82\xe8\xb2\xa1\xe5\x9c\x98\xe6\xb3\x95\xe4\xba\xba\xe6\x8c\xaf\xe8\x88\x88\xe9\x86\xab\xe9\x99\xa2',b'\xe8\x87\xba\xe5\x8c\x97\xe5\xb8\x82\xe5\x8c\x97\xe6\x8a\x95\xe5\x8d\x80\xe6\x8c\xaf\xe8\x88\x88\xe8\xa1\x9745\xe8\x99\x9f',25.1173845,121.5225928
32,hospital,b'\xe8\x87\xba\xe5\x8c\x97\xe5\xb8\x82\xe7\xab\x8b\xe9\x97\x9c\xe6\xb8\xa1\xe9\x86\xab\xe9\x99\xa2',b'\xe8\x87\xba\xe5\x8c\x97\xe5\xb8\x82\xe5\x8c\x97\xe6\x8a\x95\xe5\x8d\x80\xe7\x9f\xa5\xe8\xa1\x8c\xe8\xb7\xaf225\xe5\xb7\xb712\xe8\x99\x9f',25.1203578,121.4661369
33,hospital,b'\xe8\x87\xba\xe5\x8c\x97\xe6\xa6\xae\xe6\xb0\x91\xe7\xb8\xbd\xe9\x86\xab\xe9\x99\xa2',b'\xe8\x87\xba\xe5\x8c\x97\xe5\xb8\x82\xe5\x8c\x97\xe6\x8a\x95\xe5\x8d\x80\xe7\x9f\xb3\xe7\x89\x8c\xe8\xb7\xaf\xe4\xba\x8c\xe6\xae\xb5201\xe8\x99\x9f',25.1218376,121.5221438
34,hospital,b'\xe4\xb8\xad\xe5\x9c\x8b\xe9\x86\xab\xe8\x97\xa5\xe5\xa4\xa7\xe5\xad\xb8\xe9\x99\x84\xe8\xa8\xad\xe9\x86\xab\xe9\x99\xa2\xe8\x87\xba\xe5\x8c\x97\xe5\x88\x86\xe9\x99\xa2',b'\xe8\x87\xba\xe5\x8c\x97\xe5\xb8\x82\xe5\x85\xa7\xe6\xb9\x96\xe5\x8d\x80\xe5\x85\xa7\xe6\xb9\x96\xe8\xb7\xaf\xe4\xba\x8c\xe6\xae\xb5360\xe8\x99\x9f',25.082146,121.5907328
35,hospital,b'\xe5\xba\xb7\xe5\xaf\xa7\xe9\x86\xab\xe7\x99\x82\xe8\xb2\xa1\xe5\x9c\x98\xe6\xb3\x95\xe4\xba\xba\xe5\xba\xb7\xe5\xaf\xa7\xe9\x86\xab\xe9\x99\xa2',b'\xe8\x87\xba\xe5\x8c\x97\xe5\xb8\x82\xe5\x85\xa7\xe6\xb9\x96\xe5\x8d\x80\xe6\x88\x90\xe5\x8a\x9f\xe8\xb7\xaf\xe4\xba\x94\xe6\xae\xb5420\xe5\xb7\xb726\xe8\x99\x9f',25.0758907,121.6089476
36,hospital,b'\xe4\xb8\x89\xe8\xbb\x8d\xe7\xb8\xbd\xe9\x86\xab\xe9\x99\xa2\xe9\x99\x84\xe8\xa8\xad\xe6\xb0\x91\xe7\x9c\xbe\xe8\xa8\xba\xe7\x99\x82\xe6\x9c\x8d\xe5\x8b\x99\xe8\x99\x95',b'\xe8\x87\xba\xe5\x8c\x97\xe5\xb8\x82\xe5\x85\xa7\xe6\xb9\x96\xe5\x8d\x80\xe6\x88\x90\xe5\x8a\x9f\xe8\xb7\xaf\xe4\xba\x8c\xe6\xae\xb5325\xe8\x99\x9f',25.0717029,121.5900721
37,hospital,b'\xe4\xb8\x89\xe8\xbb\x8d\xe7\xb8\xbd\xe9\x86\xab\xe9\x99\xa2\xe9\x99\x84\xe8\xa8\xad\xe6\xb0\x91\xe7\x9c\xbe\xe8\xa8\xba\xe7\x99\x82\xe6\x9c\x8d\xe5\x8b\x99\xe8\x99\x95_1',b'\xe8\x87\xba\xe5\x8c\x97\xe5\xb8\x82\xe4\xb8\xad\xe6\xad\xa3\xe5\x8d\x80\xe6\xb1\x80\xe5\xb7\x9e\xe8\xb7\xaf3\xe6\xae\xb540\xe8\x99\x9f',25.0163971,121.5297317
38,hospital,b'\xe8\x87\xba\xe5\x8c\x97\xe5\xb8\x82\xe7\xab\x8b\xe8\x90\xac\xe8\x8a\xb3\xe9\x86\xab\xe9\x99\xa2',b'\xe8\x87\xba\xe5\x8c\x97\xe5\xb8\x82\xe6\x96\x87\xe5\xb1\xb1\xe5\x8d\x80\xe8\x88\x88\xe9\x9a\x86\xe8\xb7\xaf\xe4\xb8\x89\xe6\xae\xb5111\xe8\x99\x9f',24.999901,121.55814
39,hospital,b'\xe6\x99\xaf\xe7\xbe\x8e\xe9\x86\xab\xe9\x99\xa2',b'\xe8\x87\xba\xe5\x8c\x97\xe5\xb8\x82\xe6\x96\x87\xe5\xb1\xb1\xe5\x8d\x80\xe7\xbe\x85\xe6\x96\xaf\xe7\xa6\x8f\xe8\xb7\xaf\xe5\x85\xad\xe6\xae\xb5280\xe8\x99\x9f',24.991198,121.5398813
40,college,b'\xe5\x9c\x8b\xe7\xab\x8b\xe6\x94\xbf\xe6\xb2\xbb\xe5\xa4\xa7\xe5\xad\xb8',b'\xe8\x87\xba\xe5\x8c\x97\xe5\xb8\x82\xe6\x96\x87\xe5\xb1\xb1\xe5\x8d\x80\xe6\x8c\x87\xe5\x8d\x97\xe8\xb7\xaf2\xe6\xae\xb564\xe8\x99\x9f',24.9861384,121.5773585
41,college,b'\xe5\x9c\x8b\xe7\xab\x8b\xe8\x87\xba\xe7\x81\xa3\xe5\xa4\xa7\xe5\xad\xb8',b'\xe8\x87\xba\xe5\x8c\x97\xe5\xb8\x82\xe5\xa4\xa7\xe5\xae\x89\xe5\x8d\x80\xe7\xbe\x85\xe6\x96\xaf\xe7\xa6\x8f\xe8\xb7\xaf4\xe6\xae\xb51\xe8\x99\x9f',25.0145185,121.53792
42,college,b'\xe5\x9c\x8b\xe7\xab\x8b\xe8\x87\xba\xe7\x81\xa3\xe5\xb8\xab\xe7\xaf\x84\xe5\xa4\xa7\xe5\xad\xb8',b'\xe8\x87\xba\xe5\x8c\x97\xe5\xb8\x82\xe5\xa4\xa7\xe5\xae\x89\xe5\x8d\x80\xe5\x92\x8c\xe5\xb9\xb3\xe6\x9d\xb1\xe8\xb7\xaf1\xe6\xae\xb5162\xe8\x99\x9f',25.0259579,121.5275226
43,college,b'\xe5\x9c\x8b\xe7\xab\x8b\xe9\x99\xbd\xe6\x98\x8e\xe5\xa4\xa7\xe5\xad\xb8',b'\xe8\x87\xba\xe5\x8c\x97\xe5\xb8\x82\xe5\x8c\x97\xe6\x8a\x95\xe5\x8d\x80\xe7\xab\x8b\xe8\xbe\xb2\xe8\xa1\x972\xe6\xae\xb5155\xe8\x99\x9f',25.1196404,121.5145022
44,college,b'\xe5\x9c\x8b\xe7\xab\x8b\xe8\x87\xba\xe5\x8c\x97\xe8\x97\x9d\xe8\xa1\x93\xe5\xa4\xa7\xe5\xad\xb8',b'\xe8\x87\xba\xe5\x8c\x97\xe5\xb8\x82\xe5\x8c\x97\xe6\x8a\x95\xe5\x8d\x80\xe5\xad\xb8\xe5\x9c\x92\xe8\xb7\xaf1\xe8\x99\x9f',25.1335255,121.4713322
45,college,b'\xe5\x9c\x8b\xe7\xab\x8b\xe8\x87\xba\xe5\x8c\x97\xe6\x95\x99\xe8\x82\xb2\xe5\xa4\xa7\xe5\xad\xb8',b'\xe8\x87\xba\xe5\x8c\x97\xe5\xb8\x82\xe5\x92\x8c\xe5\xb9\xb3\xe6\x9d\xb1\xe8\xb7\xaf2\xe6\xae\xb5134\xe8\x99\x9f',25.0222416,121.5441904
46,college,b'\xe8\x87\xba\xe5\x8c\x97\xe5\xb8\x82\xe7\xab\x8b\xe5\xa4\xa7\xe5\xad\xb8',b'\xe8\x87\xba\xe5\x8c\x97\xe5\xb8\x82\xe4\xb8\xad\xe6\xad\xa3\xe5\x8d\x80\xe6\x84\x9b\xe5\x9c\x8b\xe8\xa5\xbf\xe8\xb7\xaf1\xe8\x99\x9f',25.0370831,121.5133345
47,college,b'\xe5\x9c\x8b\xe7\xab\x8b\xe8\x87\xba\xe7\x81\xa3\xe7\xa7\x91\xe6\x8a\x80\xe5\xa4\xa7\xe5\xad\xb8',b'\xe8\x87\xba\xe5\x8c\x97\xe5\xb8\x82\xe5\xa4\xa7\xe5\xae\x89\xe5\x8d\x80\xe5\x9f\xba\xe9\x9a\x86\xe8\xb7\xaf\xe5\x9b\x9b\xe6\xae\xb543\xe8\x99\x9f',25.0131401,121.5402157
48,college,b'\xe5\x9c\x8b\xe7\xab\x8b\xe8\x87\xba\xe5\x8c\x97\xe7\xa7\x91\xe6\x8a\x80\xe5\xa4\xa7\xe5\xad\xb8',b'\xe8\x87\xba\xe5\x8c\x97\xe5\xb8\x82\xe5\xbf\xa0\xe5\xad\x9d\xe6\x9d\xb1\xe8\xb7\xaf\xe4\xb8\x89\xe6\xae\xb51\xe8\x99\x9f',25.0424604,121.5356504
49,college,b'\xe5\x9c\x8b\xe7\xab\x8b\xe8\x87\xba\xe5\x8c\x97\xe8\xad\xb7\xe7\x90\x86\xe5\x81\xa5\xe5\xba\xb7\xe5\xa4\xa7\xe5\xad\xb8',b'\xe8\x87\xba\xe5\x8c\x97\xe5\xb8\x82\xe5\x8c\x97\xe6\x8a\x95\xe5\x8d\x80\xe6\x98\x8e\xe5\xbe\xb7\xe8\xb7\xaf365\xe8\x99\x9f',25.1185042,121.5210206
50,college,b'\xe5\x9c\x8b\xe7\xab\x8b\xe8\x87\xba\xe5\x8c\x97\xe5\x95\x86\xe6\xa5\xad\xe5\xa4\xa7\xe5\xad\xb8',b'\xe8\x87\xba\xe5\x8c\x97\xe5\xb8\x82\xe4\xb8\xad\xe6\xad\xa3\xe5\x8d\x80\xe6\xbf\x9f\xe5\x8d\x97\xe8\xb7\xaf\xe4\xb8\x80\xe6\xae\xb5321\xe8\x99\x9f',25.0418934,121.5255532
51,college,b'\xe5\x9c\x8b\xe7\xab\x8b\xe8\x87\xba\xe7\x81\xa3\xe6\x88\xb2\xe6\x9b\xb2\xe5\xad\xb8\xe9\x99\xa2',b'\xe8\x87\xba\xe5\x8c\x97\xe5\xb8\x82\xe5\x85\xa7\xe6\xb9\x96\xe5\x8d\x80\xe5\x85\xa7\xe6\xb9\x96\xe8\xb7\xaf\xe4\xba\x8c\xe6\xae\xb5177\xe8\x99\x9f',25.0824703,121.5868403
52,college,b'\xe6\x9d\xb1\xe5\x90\xb3\xe5\xa4\xa7\xe5\xad\xb8',b'\xe8\x87\xba\xe5\x8c\x97\xe5\xb8\x82\xe5\xa3\xab\xe6\x9e\x97\xe5\x8d\x80\xe8\x87\xa8\xe6\xba\xaa\xe8\xb7\xaf70\xe8\x99\x9f',25.0944158,121.5455756
53,college,b'\xe4\xb8\xad\xe5\x9c\x8b\xe6\x96\x87\xe5\x8c\x96\xe5\xa4\xa7\xe5\xad\xb8',b'\xe8\x87\xba\xe5\x8c\x97\xe5\xb8\x82\xe5\xa3\xab\xe6\x9e\x97\xe5\x8d\x80\xe8\x8f\xaf\xe5\xb2\xa1\xe8\xb7\xaf55\xe8\x99\x9f',25.1365853,121.5392495
54,college,b'\xe4\xb8\x96\xe6\x96\xb0\xe5\xa4\xa7\xe5\xad\xb8',b'\xe8\x87\xba\xe5\x8c\x97\xe5\xb8\x82\xe6\x96\x87\xe5\xb1\xb1\xe5\x8d\x80\xe6\x9c\xa8\xe6\x9f\xb5\xe8\xb7\xaf1\xe6\xae\xb517\xe5\xb7\xb71\xe8\x99\x9f',24.9884927,121.5439091
55,college,b'\xe9\x8a\x98\xe5\x82\xb3\xe5\xa4\xa7\xe5\xad\xb8',b'\xe8\x87\xba\xe5\x8c\x97\xe5\xb8\x82\xe5\xa3\xab\xe6\x9e\x97\xe5\x8d\x80\xe4\xb8\xad\xe5\xb1\xb1\xe5\x8c\x97\xe8\xb7\xaf5\xe6\xae\xb5250\xe8\x99\x9f',25.086817,121.526623
56,college,b'\xe5\xaf\xa6\xe8\xb8\x90\xe5\xa4\xa7\xe5\xad\xb8',b'\xe8\x87\xba\xe5\x8c\x97\xe5\xb8\x82\xe4\xb8\xad\xe5\xb1\xb1\xe5\x8d\x80\xe5\xa4\xa7\xe7\x9b\xb4\xe8\xa1\x9770\xe8\x99\x9f',25.0837391,121.546091
57,college,b'\xe5\xa4\xa7\xe5\x90\x8c\xe5\xa4\xa7\xe5\xad\xb8',b'\xe8\x87\xba\xe5\x8c\x97\xe5\xb8\x82\xe4\xb8\xad\xe5\xb1\xb1\xe5\x8c\x97\xe8\xb7\xaf3\xe6\xae\xb540\xe8\x99\x9f',25.0666839,121.5210761
58,college,b'\xe8\x87\xba\xe5\x8c\x97\xe9\x86\xab\xe5\xad\xb8\xe5\xa4\xa7\xe5\xad\xb8',b'\xe8\x87\xba\xe5\x8c\x97\xe5\xb8\x82\xe4\xbf\xa1\xe7\xbe\xa9\xe5\x8d\x80\xe5\x90\xb3\xe8\x88\x88\xe8\xa1\x97250\xe8\x99\x9f',25.0257565,121.5616911
59,college,b'\xe5\xba\xb7\xe5\xaf\xa7\xe5\xad\xb8\xe6\xa0\xa1\xe8\xb2\xa1\xe5\x9c\x98\xe6\xb3\x95\xe4\xba\xba\xe5\xba\xb7\xe5\xaf\xa7\xe5\xa4\xa7\xe5\xad\xb8',b'\xe5\x8f\xb0\xe5\x8c\x97\xe5\xb8\x82\xe5\x85\xa7\xe6\xb9\x96\xe5\x8d\x80\xe5\xba\xb7\xe5\xaf\xa7\xe8\xb7\xaf\xe4\xb8\x89\xe6\xae\xb575\xe5\xb7\xb7137\xe8\x99\x9f',25.0758095,121.6099358
60,college,b'\xe4\xb8\xad\xe5\x9c\x8b\xe7\xa7\x91\xe6\x8a\x80\xe5\xa4\xa7\xe5\xad\xb8',b'\xe8\x87\xba\xe5\x8c\x97\xe5\xb8\x82\xe6\x96\x87\xe5\xb1\xb1\xe5\x8d\x80\xe8\x88\x88\xe9\x9a\x86\xe8\xb7\xaf\xe4\xb8\x89\xe6\xae\xb556\xe8\x99\x9f',25.0000666,121.5559669
61,college,b'\xe5\xbe\xb7\xe6\x98\x8e\xe8\xb2\xa1\xe7\xb6\x93\xe7\xa7\x91\xe6\x8a\x80\xe5\xa4\xa7\xe5\xad\xb8',b'\xe8\x87\xba\xe5\x8c\x97\xe5\xb8\x82\xe5\x85\xa7\xe6\xb9\x96\xe5\x8d\x80\xe7\x92\xb0\xe5\xb1\xb1\xe8\xb7\xaf\xe4\xb8\x80\xe6\xae\xb556\xe8\x99\x9f',25.0865359,121.565509
62,college,b'\xe4\xb8\xad\xe8\x8f\xaf\xe5\xad\xb8\xe6\xa0\xa1\xe8\xb2\xa1\xe5\x9c\x98\xe6\xb3\x95\xe4\xba\xba\xe4\xb8\xad\xe8\x8f\xaf\xe7\xa7\x91\xe6\x8a\x80\xe5\xa4\xa7\xe5\xad\xb8',b'\xe8\x87\xba\xe5\x8c\x97\xe5\xb8\x82\xe5\x8d\x97\xe6\xb8\xaf\xe5\x8d\x80\xe7\xa0\x94\xe7\xa9\xb6\xe9\x99\xa2\xe8\xb7\xaf\xe4\xb8\x89\xe6\xae\xb5245\xe8\x99\x9f',25.0335917,121.6098753
63,college,b'\xe5\x9f\x8e\xe5\xb8\x82\xe5\xad\xb8\xe6\xa0\xa1\xe8\xb2\xa1\xe5\x9c\x98\xe6\xb3\x95\xe4\xba\xba\xe8\x87\xba\xe5\x8c\x97\xe5\x9f\x8e\xe5\xb8\x82\xe7\xa7\x91\xe6\x8a\x80\xe5\xa4\xa7\xe5\xad\xb8',b'\xe8\x87\xba\xe5\x8c\x97\xe5\xb8\x82\xe5\x8c\x97\xe6\x8a\x95\xe5\x8d\x80\xe5\xad\xb8\xe5\x9c\x92\xe8\xb7\xaf2\xe8\x99\x9f',25.1345998,121.4693216
64,college,b'\xe5\xad\xb8\xe6\xa0\xa1\xe8\xb2\xa1\xe5\x9c\x98\xe6\xb3\x95\xe4\xba\xba\xe4\xb8\xad\xe8\x8f\xaf\xe6\xb5\xb8\xe4\xbf\xa1\xe6\x9c\x83\xe5\x9f\xba\xe7\x9d\xa3\xe6\x95\x99\xe5\x8f\xb0\xe7\x81\xa3\xe6\xb5\xb8\xe6\x9c\x83\xe7\xa5\x9e\xe5\xad\xb8\xe9\x99\xa2',b'\xe8\x87\xba\xe5\x8c\x97\xe5\xb8\x82\xe5\x90\xb3\xe8\x88\x88\xe8\xa1\x97394\xe5\xb7\xb71\xe8\x99\x9f',25.0238639,121.5669617
65,college,b'\xe5\x8f\xb0\xe7\xa5\x9e\xe5\xad\xb8\xe6\xa0\xa1\xe8\xb2\xa1\xe5\x9c\x98\xe6\xb3\x95\xe4\xba\xba\xe5\x8f\xb0\xe7\x81\xa3\xe7\xa5\x9e\xe5\xad\xb8\xe7\xa0\x94\xe7\xa9\xb6\xe5\xad\xb8\xe9\x99\xa2',b'\xe5\x8f\xb0\xe5\x8c\x97\xe5\xb8\x82\xe5\xa3\xab\xe6\x9e\x97\xe5\x8d\x80\xe4\xbb\xb0\xe5\xbe\xb7\xe5\xa4\xa7\xe9\x81\x93\xe4\xba\x8c\xe6\xae\xb5\xe4\xba\x8c\xe5\xb7\xb720\xe8\x99\x9f',25.1016434,121.540981
66,train,b'\xe5\x8f\xb0\xe5\x8c\x97\xe8\xbb\x8a\xe7\xab\x99',b'\xe8\x87\xba\xe5\x8c\x97\xe5\xb8\x82\xe4\xb8\xad\xe6\xad\xa3\xe5\x8d\x80\xe9\xbb\x8e\xe6\x98\x8e\xe9\x87\x8c\xe5\x8c\x97\xe5\xb9\xb3\xe8\xa5\xbf\xe8\xb7\xaf3\xe8\x99\x9f',25.0477441,121.5170499
67,train,b'\xe6\x9d\xbe\xe5\xb1\xb1\xe8\xbb\x8a\xe7\xab\x99',b'\xe8\x87\xba\xe5\x8c\x97\xe5\xb8\x82\xe4\xbf\xa1\xe7\xbe\xa9\xe5\x8d\x80\xe6\xb0\xb8\xe5\x90\x89\xe9\x87\x8c\xe6\x9d\xbe\xe5\xb1\xb1\xe8\xb7\xaf11\xe8\x99\x9f',25.0491901,121.5782994
68,train,b'\xe8\x90\xac\xe8\x8f\xaf\xe8\xbb\x8a\xe7\xab\x99',b'\xe8\x87\xba\xe5\x8c\x97\xe5\xb8\x82\xe8\x90\xac\xe8\x8f\xaf\xe5\x8d\x80\xe5\xaf\x8c\xe7\xa6\x8f\xe9\x87\x8c\xe5\xba\xb7\xe5\xae\x9a\xe8\xb7\xaf382\xe8\x99\x9f',25.0333426,121.5002665
69,train,b'\xe5\x8d\x97\xe6\xb8\xaf\xe8\xbb\x8a\xe7\xab\x99',b'\xe8\x87\xba\xe5\x8c\x97\xe5\xb8\x82\xe5\x8d\x97\xe6\xb8\xaf\xe5\x8d\x80\xe5\x8d\x97\xe6\xb8\xaf\xe9\x87\x8c\xe5\x8d\x97\xe6\xb8\xaf\xe8\xb7\xaf\xe4\xb8\x80\xe6\xae\xb5313\xe8\x99\x9f',25.05317,121.6070668
